GLOBALSTAR M068 [-]     
1 32266U 07048D   17345.65071682 -.00000083  00000-0  11733-3 0  9993
2 32266  51.9903  27.2322 0001176 165.1059 346.7455 12.62691814471138
